<?xml version="1.0" encoding="UTF-8"?><osm version="0.6" generator="Overpass API 0.7.57.1 74a55df1">
<note>The data included in this document is from www.openstreetmap.org. The data is made available under ODbL.</note>
<meta osm_base="2021-11-14T01:05:18Z"/>

  <node id="2377938090" lat="41.1010587" lon="20.8059198">
    <tag k="amenity" v="bar"/>
    <tag k="name" v="Cuba Libre Beach Club"/>
    <tag k="name:mk" v="Куба либре"/>
  </node>
  <node id="2377938236" lat="41.0983462" lon="20.8042407">
    <tag k="amenity" v="bar"/>
    <tag k="int_name" v="Ambrosia"/>
    <tag k="name" v="Амброзија"/>
  </node>
  <node id="2377938288" lat="41.0999773" lon="20.8049971">
    <tag k="amenity" v="bar"/>
    <tag k="name" v="Kadmo Beach Club"/>
  </node>
  <node id="3826400426" lat="41.1126013" lon="20.8027449">
    <tag k="amenity" v="bar"/>
    <tag k="name" v="Connect"/>
  </node>
  <node id="4275553389" lat="41.1122617" lon="20.7912119">
    <tag k="amenity" v="bar"/>
    <tag k="cuisine" v="cake;sandwich;coffee_shop"/>
    <tag k="internet_access" v="wlan"/>
    <tag k="name" v="Пантелејмп"/>
    <tag k="name:en" v="Pantelejmon"/>
  </node>
  <node id="5077399021" lat="41.1133770" lon="20.7996516">
    <tag k="amenity" v="bar"/>
    <tag k="internet_access" v="wlan"/>
    <tag k="name:en" v="Shilla"/>
    <tag k="website" v="https://www.facebook.com/ShillaCoffeeBar/"/>
  </node>
  <node id="5890928713" lat="41.1080463" lon="20.8066006">
    <tag k="amenity" v="bar"/>
    <tag k="name" v="Pardise"/>
  </node>
  <node id="6833100792" lat="41.1175179" lon="20.8015609">
    <tag k="amenity" v="bar"/>
  </node>
  <node id="8946192917" lat="41.1181619" lon="20.7985290">
    <tag k="amenity" v="bar"/>
    <tag k="name" v="Gostilnica Boem"/>
  </node>
  <node id="9200216331" lat="41.1116510" lon="20.8020830">
    <tag k="amenity" v="bar"/>
    <tag k="name" v="Octava"/>
  </node>

</osm>